*******************************************************************************
Ephemeris / WWW_USER Mon Mar 24 11:44:49 2025 Pasadena, USA      / Horizons    
*******************************************************************************
Target body name: (2017 SN16)                     {source: JPL#20}
Center body name: Earth (399)                     {source: DE441}
Center-site name: Gemini South Obs., Cerro Pachon
*******************************************************************************
Start time      : A.D. 2018-Aug-23 22:31:00.0000 UT      
Stop  time      : A.D. 2018-Aug-24 10:59:00.0000 UT      
Step-size       : 1 minutes
*******************************************************************************
Target pole/equ : undefined
Target radii    : undefined                                                    
Center geodetic : 289.2634, -30.2406227, 2.71233  {E-lon(deg),Lat(deg),Alt(km)}
Center cylindric: 289.2634,5517.21435,-3194.81213 {E-lon(deg),Dxy(km),Dz(km)}
Center pole/equ : ITRF93                          {East-longitude positive}
Center radii    : 6378.137, 6378.137, 6356.752 km {Equator_a, b, pole_c}       
Target primary  : Sun
Vis. interferer : MOON (R_eq= 1737.400) km        {source: DE441}
Rel. light bend : Sun                             {source: DE441}
Rel. lght bnd GM: 1.3271E+11 km^3/s^2                                          
Small-body perts: Yes                             {source: SB441-N16}
Atmos refraction: NO (AIRLESS)
RA format       : HMS
Time format     : CAL 
Calendar mode   : Mixed Julian/Gregorian
RTS-only print  : NO       
EOP file        : eop.250321.p250617                                           
EOP coverage    : DATA-BASED 1962-JAN-20 TO 2025-MAR-21. PREDICTS-> 2025-JUN-16
Units conversion: 1 au= 149597870.700 km, c= 299792.458 km/s, 1 day= 86400.0 s 
Table cut-offs 1: Elevation (-90.0deg=NO ),Airmass (>38.000=NO), Daylight (YES)
Table cut-offs 2: Solar elongation (  0.0,180.0=NO ),Local Hour Angle( 0.0=NO )
Table cut-offs 3: RA/DEC angular rate (     0.0=NO )                           
*******************************************************************************
Initial IAU76/J2000 heliocentric ecliptic osculating elements (au, days, deg.):
  EPOCH=  2458305.5 ! 2018-Jul-06.00 (TDB)         Residual RMS= .23751        
   EC= .1454884975659386   QR= .8682464985612274   TP= 2458145.5722438502      
   OM= 2.759719470837934   W=  137.1017088998531   IN= 13.38264682844635       
  Equivalent ICRF heliocentric cartesian coordinates (au, au/d):
   X= 5.756755401261899E-01  Y=-7.953424559592890E-01  Z=-6.031561894536019E-01
  VX= 1.332076113263395E-02 VY= 5.454663564585547E-03 VZ= 3.896229736425836E-03
Asteroid physical parameters (km, seconds, rotational period in hours):        
   GM= n.a.                RAD= n.a.               ROTPER= n.a.                
   H= 23.34                G= .150                 B-V= n.a.                   
                           ALBEDO= n.a.            STYP= n.a.                  
*******************************************************************************
 Date__(UT)__HR:MN     R.A._________(ICRF)_________DEC
******************************************************
$$SOE
 2018-Aug-24 04:40  m  01 41 34.593994 -26 35 49.87542
 2018-Aug-24 04:41  m  01 41 34.527687 -26 35 49.62363
 2018-Aug-24 04:42  m  01 41 34.461334 -26 35 49.37166
 2018-Aug-24 04:43  m  01 41 34.394937 -26 35 49.11949
 2018-Aug-24 04:44  m  01 41 34.328495 -26 35 48.86712
 2018-Aug-24 04:45  m  01 41 34.262008 -26 35 48.61456
 2018-Aug-24 04:46  m  01 41 34.195476 -26 35 48.36180
 2018-Aug-24 04:47  m  01 41 34.128899 -26 35 48.10884
 2018-Aug-24 04:48  m  01 41 34.062279 -26 35 47.85569
 2018-Aug-24 04:49  m  01 41 33.995614 -26 35 47.60233
 2018-Aug-24 04:50  m  01 41 33.928905 -26 35 47.34878
 2018-Aug-24 04:51  m  01 41 33.862152 -26 35 47.09502
 2018-Aug-24 04:52  m  01 41 33.795355 -26 35 46.84106
 2018-Aug-24 04:53  m  01 41 33.728515 -26 35 46.58689
 2018-Aug-24 04:54  m  01 41 33.661630 -26 35 46.33252
 2018-Aug-24 04:55  m  01 41 33.594703 -26 35 46.07795
 2018-Aug-24 04:56  m  01 41 33.527732 -26 35 45.82316
 2018-Aug-24 04:57  m  01 41 33.460718 -26 35 45.56817
 2018-Aug-24 04:58  m  01 41 33.393661 -26 35 45.31297
 2018-Aug-24 04:59  m  01 41 33.326562 -26 35 45.05756
 2018-Aug-24 05:00  m  01 41 33.259419 -26 35 44.80193
 2018-Aug-24 05:01  m  01 41 33.192234 -26 35 44.54610
 2018-Aug-24 05:02  m  01 41 33.125007 -26 35 44.29005
 2018-Aug-24 05:03  m  01 41 33.057737 -26 35 44.03379
 2018-Aug-24 05:04  m  01 41 32.990425 -26 35 43.77731
 2018-Aug-24 05:05  m  01 41 32.923071 -26 35 43.52061
 2018-Aug-24 05:06  m  01 41 32.855675 -26 35 43.26370
 2018-Aug-24 05:07  m  01 41 32.788238 -26 35 43.00657
 2018-Aug-24 05:08  m  01 41 32.720759 -26 35 42.74922
 2018-Aug-24 05:09  m  01 41 32.653239 -26 35 42.49165
 2018-Aug-24 05:10  m  01 41 32.585677 -26 35 42.23385
 2018-Aug-24 05:11  m  01 41 32.518075 -26 35 41.97584
 2018-Aug-24 05:12  m  01 41 32.450431 -26 35 41.71760
 2018-Aug-24 05:13  m  01 41 32.382747 -26 35 41.45914
 2018-Aug-24 05:14  m  01 41 32.315022 -26 35 41.20045
 2018-Aug-24 05:15  m  01 41 32.247257 -26 35 40.94154
 2018-Aug-24 05:16  m  01 41 32.179451 -26 35 40.68240
 2018-Aug-24 05:17  m  01 41 32.111605 -26 35 40.42303
 2018-Aug-24 05:18  m  01 41 32.043719 -26 35 40.16343
 2018-Aug-24 05:19  m  01 41 31.975793 -26 35 39.90361
 2018-Aug-24 05:20  m  01 41 31.907828 -26 35 39.64355
 2018-Aug-24 05:21  m  01 41 31.839823 -26 35 39.38326
 2018-Aug-24 05:22  m  01 41 31.771779 -26 35 39.12273
 2018-Aug-24 05:23  m  01 41 31.703695 -26 35 38.86198
 2018-Aug-24 05:24  m  01 41 31.635572 -26 35 38.60098
 2018-Aug-24 05:25  m  01 41 31.567411 -26 35 38.33976
 2018-Aug-24 05:26  m  01 41 31.499211 -26 35 38.07829
 2018-Aug-24 05:27  m  01 41 31.430972 -26 35 37.81659
 2018-Aug-24 05:28  m  01 41 31.362695 -26 35 37.55465
 2018-Aug-24 05:29  m  01 41 31.294379 -26 35 37.29247
 2018-Aug-24 05:30  m  01 41 31.226026 -26 35 37.03006
 2018-Aug-24 05:31  m  01 41 31.157635 -26 35 36.76740
 2018-Aug-24 05:32  m  01 41 31.089205 -26 35 36.50450
 2018-Aug-24 05:33  m  01 41 31.020739 -26 35 36.24135
 2018-Aug-24 05:34  m  01 41 30.952235 -26 35 35.97796
 2018-Aug-24 05:35  m  01 41 30.883693 -26 35 35.71433
 2018-Aug-24 05:36  m  01 41 30.815115 -26 35 35.45045
 2018-Aug-24 05:37  m  01 41 30.746499 -26 35 35.18633
 2018-Aug-24 05:38  m  01 41 30.677847 -26 35 34.92196
 2018-Aug-24 05:39  m  01 41 30.609159 -26 35 34.65734
 2018-Aug-24 05:40  m  01 41 30.540434 -26 35 34.39247
 2018-Aug-24 05:41  m  01 41 30.471672 -26 35 34.12735
 2018-Aug-24 05:42  m  01 41 30.402875 -26 35 33.86198
 2018-Aug-24 05:43  m  01 41 30.334042 -26 35 33.59636
 2018-Aug-24 05:44  m  01 41 30.265173 -26 35 33.33049
 2018-Aug-24 05:45  m  01 41 30.196269 -26 35 33.06437
 2018-Aug-24 05:46  m  01 41 30.127329 -26 35 32.79799
 2018-Aug-24 05:47  m  01 41 30.058354 -26 35 32.53136
 2018-Aug-24 05:48  m  01 41 29.989344 -26 35 32.26447
 2018-Aug-24 05:49  m  01 41 29.920299 -26 35 31.99732
 2018-Aug-24 05:50  m  01 41 29.851220 -26 35 31.72992
 2018-Aug-24 05:51  m  01 41 29.782106 -26 35 31.46226
 2018-Aug-24 05:52  m  01 41 29.712957 -26 35 31.19434
 2018-Aug-24 05:53  m  01 41 29.643775 -26 35 30.92616
 2018-Aug-24 05:54  m  01 41 29.574559 -26 35 30.65772
 2018-Aug-24 05:55  m  01 41 29.505309 -26 35 30.38902
 2018-Aug-24 05:56  m  01 41 29.436025 -26 35 30.12006
 2018-Aug-24 05:57  m  01 41 29.366708 -26 35 29.85083
 2018-Aug-24 05:58  m  01 41 29.297358 -26 35 29.58135
 2018-Aug-24 05:59  m  01 41 29.227975 -26 35 29.31159
 2018-Aug-24 06:00  m  01 41 29.158559 -26 35 29.04158
 2018-Aug-24 06:01  m  01 41 29.089110 -26 35 28.77129
 2018-Aug-24 06:02  m  01 41 29.019629 -26 35 28.50075
 2018-Aug-24 06:03  m  01 41 28.950115 -26 35 28.22993
 2018-Aug-24 06:04  m  01 41 28.880569 -26 35 27.95884
 2018-Aug-24 06:05  m  01 41 28.810992 -26 35 27.68749
 2018-Aug-24 06:06  m  01 41 28.741383 -26 35 27.41587
 2018-Aug-24 06:07  m  01 41 28.671742 -26 35 27.14398
 2018-Aug-24 06:08  m  01 41 28.602070 -26 35 26.87181
 2018-Aug-24 06:09  m  01 41 28.532366 -26 35 26.59938
 2018-Aug-24 06:10  m  01 41 28.462632 -26 35 26.32667
 2018-Aug-24 06:11  m  01 41 28.392867 -26 35 26.05369
 2018-Aug-24 06:12  m  01 41 28.323071 -26 35 25.78043
 2018-Aug-24 06:13  m  01 41 28.253244 -26 35 25.50691
 2018-Aug-24 06:14  m  01 41 28.183388 -26 35 25.23310
 2018-Aug-24 06:15  m  01 41 28.113501 -26 35 24.95902
 2018-Aug-24 06:16  m  01 41 28.043585 -26 35 24.68467
 2018-Aug-24 06:17  m  01 41 27.973639 -26 35 24.41003
 2018-Aug-24 06:18  m  01 41 27.903664 -26 35 24.13512
 2018-Aug-24 06:19  m  01 41 27.833659 -26 35 23.85993
 2018-Aug-24 06:20  m  01 41 27.763625 -26 35 23.58446
 2018-Aug-24 06:21  m  01 41 27.693562 -26 35 23.30872
 2018-Aug-24 06:22  m  01 41 27.623471 -26 35 23.03269
 2018-Aug-24 06:23  m  01 41 27.553351 -26 35 22.75638
 2018-Aug-24 06:24  m  01 41 27.483203 -26 35 22.47978
 2018-Aug-24 06:25  m  01 41 27.413026 -26 35 22.20291
 2018-Aug-24 06:26  m  01 41 27.342822 -26 35 21.92575
 2018-Aug-24 06:27  m  01 41 27.272590 -26 35 21.64831
 2018-Aug-24 06:28  m  01 41 27.202331 -26 35 21.37059
 2018-Aug-24 06:29  m  01 41 27.132044 -26 35 21.09258
 2018-Aug-24 06:30  m  01 41 27.061730 -26 35 20.81428
 2018-Aug-24 06:31  m  01 41 26.991389 -26 35 20.53570
 2018-Aug-24 06:32  m  01 41 26.921022 -26 35 20.25683
 2018-Aug-24 06:33  m  01 41 26.850628 -26 35 19.97767
 2018-Aug-24 06:34  m  01 41 26.780207 -26 35 19.69823
 2018-Aug-24 06:35  m  01 41 26.709761 -26 35 19.41850
 2018-Aug-24 06:36  m  01 41 26.639288 -26 35 19.13848
 2018-Aug-24 06:37  m  01 41 26.568790 -26 35 18.85817
 2018-Aug-24 06:38  m  01 41 26.498266 -26 35 18.57757
 2018-Aug-24 06:39  m  01 41 26.427717 -26 35 18.29667
 2018-Aug-24 06:40  m  01 41 26.357143 -26 35 18.01549
 2018-Aug-24 06:41  m  01 41 26.286544 -26 35 17.73402
 2018-Aug-24 06:42  m  01 41 26.215920 -26 35 17.45225
